NORAD_CAT_ID,OBJECT_NAME,OBJECT_TYPE,EPOCH,MEAN_MOTION,ECCENTRICITY,INCLINATION,RA_OF_ASC_NODE,ARG_OF_PERICENTER,MEAN_ANOMALY,BSTAR,MEAN_MOTION_DOT,MEAN_MOTION_DDOT,TLE_LINE0,TLE_LINE1,TLE_LINE2,SEMIMAJOR_AXIS,PERIOD,APOGEE,PERIGEE,DECAYED
50839.0,STARLINK-3320,PAYLOAD,2024-03-09 02:55:10,15.08850907,0.0001268,53.2153,218.7651,74.4537,285.6595,3.9768e-05,3.45e-06,0.0,0 STARLINK-3320,1 50839U 22001AN  24069.12165374  .00000345  00000-0  39768-4 0  9999,2 50839  53.2153 218.7651 0001268  74.4537 285.6595 15.08850907121246,6917.847,95.437,540.589,538.835,0.0
50839.0,STARLINK-3320,PAYLOAD,2024-03-09 18:49:02,15.08838177,0.0001384,53.2159,215.7927,77.8215,282.2932,-0.00014275,-2.559e-05,0.0,0 STARLINK-3320,1 50839U 22001AN  24069.78406109 -.00002559  00000-0 -14275-3 0  9991,2 50839  53.2159 215.7927 0001384  77.8215 282.2932 15.08838177121348,6917.886,95.438,540.708,538.794,0.0
50839.0,STARLINK-3320,PAYLOAD,2024-03-10 02:45:58,15.08840442,0.0001354,53.2162,214.3063,80.7075,279.4071,-4.3919e-05,-9.87e-06,0.0,0 STARLINK-3320,1 50839U 22001AN  24070.11526032 -.00000987  00000-0 -43919-4 0  9999,2 50839  53.2162 214.3063 0001354  80.7075 279.4071 15.08840442120116,6917.879,95.438,540.681,538.807,0.0
50839.0,STARLINK-3320,PAYLOAD,2024-03-10 18:39:49,15.0885729,0.0001261,53.213,211.3326,83.8046,276.3089,-7.9951e-05,-1.561e-05,0.0,0 STARLINK-3320,1 50839U 22001AN  24070.77765166 -.00001561  00000-0 -79951-4 0  9998,2 50839  53.2130 211.3326 0001261  83.8046 276.3089 15.08857290121495,6917.828,95.436,540.565,538.82,0.0
50839.0,STARLINK-3320,PAYLOAD,2024-03-11 02:36:45,15.08841465,0.0001693,53.2164,209.8455,80.4676,279.6507,0.00017121,2.438e-05,0.0,0 STARLINK-3320,1 50839U 22001AN  24071.10886159  .00002438  00000-0  17121-3 0  9994,2 50839  53.2164 209.8455 0001693  80.4676 279.6507 15.08841465121542,6917.876,95.437,540.912,538.57,0.0
50839.0,STARLINK-3320,PAYLOAD,2024-03-11 15:19:50,15.0884487,0.0001996,53.2087,207.4659,83.7388,276.3831,0.00026697,3.964e-05,0.0,0 STARLINK-3320,1 50839U 22001AN  24071.63878088  .00003964  00000-0  26697-3 0  9997,2 50839  53.2087 207.4659 0001996  83.7388 276.3831 15.08844870120342,6917.866,95.437,541.111,538.35,0.0
50839.0,STARLINK-3320,PAYLOAD,2024-03-12 11:59:51,15.08842865,0.0001663,53.2108,203.5983,88.1446,271.9736,1.0618e-05,-1.19e-06,0.0,0 STARLINK-3320,1 50839U 22001AN  24072.49990032 -.00000119  00000-0  10618-4 0  9993,2 50839  53.2108 203.5983 0001663  88.1446 271.9736 15.08842865121751,6917.872,95.437,540.887,538.586,0.0
50839.0,STARLINK-3320,PAYLOAD,2024-03-12 15:10:37,15.08842379,0.0001442,53.2122,203.0034,97.3027,262.8129,0.00012452,1.694e-05,0.0,0 STARLINK-3320,1 50839U 22001AN  24072.63237978  .00001694  00000-0  12452-3 0  9997,2 50839  53.2122 203.0034 0001442  97.3027 262.8129 15.08842379120496,6917.873,95.437,540.736,538.741,0.0
50839.0,STARLINK-3320,PAYLOAD,2024-03-13 15:01:24,15.08843347,9.05e-05,53.2169,198.5481,82.7523,277.3572,0.00018003,2.579e-05,0.0,0 STARLINK-3320,1 50839U 22001AN  24073.62598007  .00002579  00000-0  18003-3 0  9991,2 50839  53.2169 198.5481 0000905  82.7523 277.3572 15.08843347120649,6917.87,95.437,540.361,539.109,0.0
50839.0,STARLINK-3320,PAYLOAD,2024-03-14 11:41:25,15.08845162,0.0001136,53.218,194.6837,89.0221,271.0902,0.0001469,2.051e-05,0.0,0 STARLINK-3320,1 50839U 22001AN  24074.48709845  .00002051  00000-0  14690-3 0  9993,2 50839  53.2180 194.6837 0001136  89.0221 271.0902 15.08845162120775,6917.865,95.437,540.515,538.944,0.0
50839.0,STARLINK-3320,PAYLOAD,2024-03-15 11:32:12,15.08835856,0.0001268,53.2155,190.2192,85.1235,274.9902,-5.4261e-05,-1.151e-05,0.0,0 STARLINK-3320,1 50839U 22001AN  24075.48070213 -.00001151  00000-0 -54261-4 0  9995,2 50839  53.2155 190.2192 0001268  85.1235 274.9902 15.08835856122202,6917.893,95.438,540.635,538.881,0.0
50839.0,STARLINK-3320,PAYLOAD,2024-03-16 12:58:23,15.08838379,0.0001342,53.2159,185.4611,87.5273,272.5873,2.6341e-05,1.31e-06,0.0,0 STARLINK-3320,1 50839U 22001AN  24076.54054602  .00000131  00000-0  26341-4 0  9990,2 50839  53.2159 185.4611 0001342  87.5273 272.5873 15.08838379122360,6917.885,95.438,540.679,538.822,0.0
50839.0,STARLINK-3320,PAYLOAD,2024-03-16 14:33:46,15.08842272,0.0001343,53.2169,185.1647,79.0652,281.0491,5.601e-05,6.04e-06,0.0,0 STARLINK-3320,1 50839U 22001AN  24076.60678320  .00000604  00000-0  56010-4 0  9997,2 50839  53.2169 185.1647 0001343  79.0652 281.0491 15.08842272121092,6917.873,95.437,540.668,538.809,0.0
50839.0,STARLINK-3320,PAYLOAD,2024-03-16 16:09:09,15.08843786,0.0001416,53.2175,184.8674,90.0376,270.0778,6.4262e-05,7.35e-06,0.0,0 STARLINK-3320,1 50839U 22001AN  24076.67302152  .00000735  00000-0  64262-4 0  9994,2 50839  53.2175 184.8674 0001416  90.0376 270.0778 15.08843786121101,6917.869,95.437,540.713,538.754,0.0
50839.0,STARLINK-3320,PAYLOAD,2024-03-17 12:49:11,15.08826124,0.0001534,53.2195,181.0055,75.3401,284.7761,0.0001223,1.658e-05,0.0,0 STARLINK-3320,1 50839U 22001AN  24077.53415585  .00001658  00000-0  12230-3 0  9997,2 50839  53.2195 181.0055 0001534  75.3401 284.7761 15.08826124122518,6917.923,95.438,540.849,538.727,0.0
50839.0,STARLINK-3320,PAYLOAD,2024-03-17 14:24:33,15.08833569,0.0001441,53.2176,180.7053,91.8003,268.3154,0.00010374,1.363e-05,0.0,0 STARLINK-3320,1 50839U 22001AN  24077.60039069  .00001363  00000-0  10374-3 0  9994,2 50839  53.2176 180.7053 0001441  91.8003 268.3154 15.08833569121243,6917.9,95.438,540.762,538.768,0.0
50839.0,STARLINK-3320,PAYLOAD,2024-03-18 11:04:33,15.08846824,0.0001438,53.2176,176.8399,108.4912,251.6236,5.4012e-05,5.72e-06,0.0,0 STARLINK-3320,1 50839U 22001AN  24078.46150436  .00000572  00000-0  54012-4 0  9990,2 50839  53.2176 176.8399 0001438 108.4912 251.6236 15.08846824122652,6917.86,95.437,540.719,538.73,0.0
50839.0,STARLINK-3320,PAYLOAD,2024-03-19 12:30:43,15.08851505,0.000146,53.2177,172.0809,79.2134,280.9022,0.00012089,1.637e-05,0.0,0 STARLINK-3320,1 50839U 22001AN  24079.52133905  .00001637  00000-0  12089-3 0  9990,2 50839  53.2177 172.0809 0001460  79.2134 280.9022 15.08851505122811,6917.845,95.437,540.72,538.7,0.0
50839.0,STARLINK-3320,PAYLOAD,2024-03-20 10:46:08,15.08837961,0.0001872,53.2173,167.9169,112.6982,247.4209,-7.5337e-05,-1.487e-05,0.0,0 STARLINK-3320,1 50839U 22001AN  24080.44870994 -.00001487  00000-0 -75337-4 0  9990,2 50839  53.2173 167.9169 0001872 112.6982 247.4209 15.08837961122959,6917.887,95.438,541.047,538.457,0.0
50839.0,STARLINK-3320,PAYLOAD,2024-03-20 12:21:31,15.08837883,0.0001729,53.2173,167.6201,106.776,253.3422,-7.9352e-05,-1.551e-05,0.0,0 STARLINK-3320,1 50839U 22001AN  24080.51495057 -.00001551  00000-0 -79352-4 0  9994,2 50839  53.2173 167.6201 0001729 106.7760 253.3422 15.08837883121687,6917.887,95.438,540.948,538.556,0.0
50839.0,STARLINK-3320,PAYLOAD,2024-03-21 12:12:18,15.08841834,0.0001564,53.2166,163.1605,96.5965,263.5205,0.00013809,1.91e-05,0.0,0 STARLINK-3320,1 50839U 22001AN  24081.50854247  .00001910  00000-0  13809-3 0  9995,2 50839  53.2166 163.1605 0001564  96.5965 263.5205 15.08841834123111,6917.875,95.437,540.822,538.658,0.0
50839.0,STARLINK-3320,PAYLOAD,2024-03-22 12:03:04,15.0884927,0.0001675,53.2178,158.7021,102.9899,257.128,0.0002398,3.531e-05,0.0,0 STARLINK-3320,1 50839U 22001AN  24082.50213598  .00003531  00000-0  23980-3 0  9996,2 50839  53.2178 158.7021 0001675 102.9899 257.1280 15.08849270121984,6917.852,95.437,540.876,538.558,0.0
50839.0,STARLINK-3320,PAYLOAD,2024-03-23 10:18:30,15.08829478,0.0001477,53.2167,154.5384,106.8253,253.2901,-6.7002e-05,-1.354e-05,0.0,0 STARLINK-3320,1 50839U 22001AN  24083.42952301 -.00001354  00000-0 -67002-4 0  9997,2 50839  53.2167 154.5384 0001477 106.8253 253.2901 15.08829478123409,6917.913,95.438,540.799,538.756,0.0
50839.0,STARLINK-3320,PAYLOAD,2024-03-24 13:20:01,15.0887456,0.0001503,53.2166,149.4811,108.5452,251.5703,0.00046054,7.056e-05,0.0,0 STARLINK-3320,1 50839U 22001AN  24084.55557049  .00007056  00000-0  46054-3 0  9998,2 50839  53.2166 149.4811 0001503 108.5452 251.5703 15.08874560123577,6917.775,95.435,540.679,538.6,0.0
50839.0,STARLINK-3320,PAYLOAD,2024-03-24 21:16:58,15.08845459,0.0001746,53.2167,147.9937,83.8181,276.3009,8.1802e-05,1.014e-05,0.0,0 STARLINK-3320,1 50839U 22001AN  24084.88678694  .00001014  00000-0  81802-4 0  9993,2 50839  53.2167 147.9937 0001746  83.8181 276.3009 15.08845459123628,6917.864,95.437,540.937,538.521,0.0
50839.0,STARLINK-3320,PAYLOAD,2024-03-25 11:35:26,15.08844791,0.0001561,53.2162,145.3182,92.0752,268.0419,0.00011875,1.603e-05,0.0,0 STARLINK-3320,1 50839U 22001AN  24085.48295116  .00001603  00000-0  11875-3 0  9990,2 50839  53.2162 145.3182 0001561  92.0752 268.0419 15.08844791123719,6917.866,95.437,540.811,538.651,0.0
50839.0,STARLINK-3320,PAYLOAD,2024-03-25 21:07:46,15.08828839,0.0001652,53.2167,143.5333,86.1344,273.9837,-0.00015253,-2.714e-05,0.0,0 STARLINK-3320,1 50839U 22001AN  24085.88039852 -.00002714  00000-0 -15253-3 0  9997,2 50839  53.2167 143.5333 0001652  86.1344 273.9837 15.08828839123774,6917.915,95.438,540.922,538.637,0.0
50839.0,STARLINK-3320,PAYLOAD,2024-03-26 13:01:38,15.08825943,0.0001674,53.2157,140.5571,104.8733,255.2444,-0.00029567,-4.989e-05,0.0,0 STARLINK-3320,1 50839U 22001AN  24086.54280924 -.00004989  00000-0 -29567-3 0  9998,2 50839  53.2157 140.5571 0001674 104.8733 255.2444 15.08825943122597,6917.923,95.438,540.946,538.63,0.0
50839.0,STARLINK-3320,PAYLOAD,2024-03-26 20:58:34,15.08832258,0.0001991,53.2178,139.0712,101.459,258.6626,-0.00012475,-2.273e-05,0.0,0 STARLINK-3320,1 50839U 22001AN  24086.87401011 -.00002273  00000-0 -12475-3 0  9990,2 50839  53.2178 139.0712 0001991 101.4590 258.6626 15.08832258122648,6917.904,95.438,541.146,538.392,0.0
50839.0,STARLINK-3320,PAYLOAD,2024-03-27 09:41:40,15.08826373,0.0001588,53.2164,136.6953,85.6787,274.4386,0.00035141,5.307e-05,0.0,0 STARLINK-3320,1 50839U 22001AN  24087.40394060  .00005307  00000-0  35141-3 0  9999,2 50839  53.2164 136.6953 0001588  85.6787 274.4386 15.08826373124008,6917.922,95.438,540.886,538.688,0.0
